NORAD_CAT_ID,OBJECT_NAME,OBJECT_TYPE,EPOCH,MEAN_MOTION,ECCENTRICITY,INCLINATION,RA_OF_ASC_NODE,ARG_OF_PERICENTER,MEAN_ANOMALY,BSTAR,MEAN_MOTION_DOT,MEAN_MOTION_DDOT,TLE_LINE0,TLE_LINE1,TLE_LINE2,SEMIMAJOR_AXIS,PERIOD,APOGEE,PERIGEE,DECAYED
44767,STARLINK-1062,PAYLOAD,2022-12-26 12:02:48,15.06387916,0.0001203,53.0538,75.3085,74.6669,285.4453,-3.0812e-07,-2.86e-06,0.0,0 STARLINK-1062,1 44767U 19074BG  22360.50195552 -.00000286  00000-0 -30812-6 0  9992,2 44767  53.0538  75.3085 0001203  74.6669 285.4453 15.06387916172148,6925.386,95.593,548.0840000000002,546.4169999999998,0.0
44767,STARLINK-1062,PAYLOAD,2022-12-26 15:13:53,15.063932199999998,0.0001240999999999,53.0537,74.7121,76.6276,283.4851,1.2183e-06,-2.63e-06,0.0,0 STARLINK-1062,1 44767U 19074BG  22360.63464594 -.00000263  00000-0  12183-5 0  9995,2 44767  53.0537  74.7121 0001241  76.6276 283.4851 15.06393220171996,6925.369000000002,95.593,548.094,546.375,0.0
44767,STARLINK-1062,PAYLOAD,2022-12-27 07:09:16,15.06408864,0.0001311,53.0527,71.734,73.531,286.5822,0.00028858,4.021e-05,0.0,0 STARLINK-1062,1 44767U 19074BG  22361.29810335  .00004021  00000-0  28858-3 0  9995,2 44767  53.0527  71.7340 0001311  73.5310 286.5822 15.06408864172262,6925.321,95.592,548.094,546.278,0.0
44767,STARLINK-1062,PAYLOAD,2022-12-27 10:20:20,15.06415064,0.0001348,53.0523,71.1383,73.0001,287.1136,0.00051013,7.328e-05,0.0,0 STARLINK-1062,1 44767U 19074BG  22361.43079671  .00007328  00000-0  51013-3 0  9993,2 44767  53.0523  71.1383 0001348  73.0001 287.1136 15.06415064172288,6925.302,95.591,548.101,546.234,0.0
44767,STARLINK-1062,PAYLOAD,2022-12-29 00:33:17,15.06410627,0.0001393,53.0518,63.9885,70.3051,289.8088,0.00019465,2.62e-05,0.0,0 STARLINK-1062,1 44767U 19074BG  22363.02311585  .00002620  00000-0  19465-3 0  9998,2 44767  53.0518  63.9885 0001393  70.3051 289.8088 15.06410627172525,6925.316,95.591,548.146,546.216,0.0
44767,STARLINK-1062,PAYLOAD,2022-12-29 06:55:26,15.06388707,0.0001384,53.0526,62.7979,68.2381,291.8755,-0.00027253,-4.337e-05,0.0,0 STARLINK-1062,1 44767U 19074BG  22363.28850529 -.00004337  00000-0 -27253-3 0  9995,2 44767  53.0526  62.7979 0001384  68.2381 291.8755 15.06388707172568,6925.3830000000025,95.593,548.207,546.29,0.0
44767,STARLINK-1062,PAYLOAD,2022-12-30 03:37:29,15.06371661,0.000134,53.0545,58.925,59.7988,300.3133,2.3633e-05,7e-07,0.0,0 STARLINK-1062,1 44767U 19074BG  22364.15103639  .00000070  00000-0  23633-4 0  9992,2 44767  53.0545  58.9250 0001340  59.7988 300.3133 15.06371661172699,6925.435,95.594,548.2280000000002,546.372,0.0
44767,STARLINK-1062,PAYLOAD,2022-12-30 09:59:38,15.06385153,0.0001553,53.0531,57.7358,64.2404,295.8745,0.00024512,3.37e-05,0.0,0 STARLINK-1062,1 44767U 19074BG  22364.41642119  .00003370  00000-0  24512-3 0  9994,2 44767  53.0531  57.7358 0001553  64.2404 295.8745 15.06385153172733,6925.394,95.593,548.335,546.184,0.0
44767,STARLINK-1062,PAYLOAD,2022-12-30 13:10:43,15.06389501,0.0001551,53.053,57.1391,66.4847,293.6305,0.00034699,4.889e-05,0.0,0 STARLINK-1062,1 44767U 19074BG  22364.54911405  .00004889  00000-0  34699-3 0  9998,2 44767  53.0530  57.1391 0001551  66.4847 293.6305 15.06389501172588,6925.380999999999,95.593,548.32,546.172,0.0
44767,STARLINK-1062,PAYLOAD,2022-12-30 21:08:24,15.06405253,0.000155,53.0532,55.65,66.7259,293.3893,0.0004448999999999,6.352e-05,0.0,0 STARLINK-1062,1 44767U 19074BG  22364.88084303  .00006352  00000-0  44490-3 0  9990,2 44767  53.0532  55.6500 0001550  66.7259 293.3893 15.06405253172801,6925.331999999999,95.592,548.271,546.124,0.0
44767,STARLINK-1062,PAYLOAD,2022-12-31 13:03:48,15.06423686,0.0001641999999999,53.052,52.6736,54.4021,305.7121,0.0008445999999999,0.00012329,0.0,0 STARLINK-1062,1 44767U 19074BG  22365.54430586  .00012329  00000-0  84460-3 0  9994,2 44767  53.0520  52.6736 0001642  54.4021 305.7121 15.06423686172733,6925.276,95.591,548.278,546.004,0.0
44767,STARLINK-1062,PAYLOAD,2023-01-01 04:59:11,15.06405612,0.0001821,53.0523,49.692,64.6786,295.4391,-0.00035616,-5.584e-05,0.0,0 STARLINK-1062,1 44767U 19074BG  23001.20776924 -.00005584  00000-0 -35616-3 0  9990,2 44767  53.0523  49.6920 0001821  64.6786 295.4391 15.06405612173001,6925.331,95.592,548.457,545.935,0.0
44767,STARLINK-1062,PAYLOAD,2023-01-01 09:45:48,15.06397776,0.0001543,53.0538,48.7978,69.1424,290.9731,-0.00034266,-5.381e-05,0.0,0 STARLINK-1062,1 44767U 19074BG  23001.40681225 -.00005381  00000-0 -34266-3 0  9996,2 44767  53.0538  48.7978 0001543  69.1424 290.9731 15.06397776172862,6925.355,95.592,548.289,546.1519999999998,0.0
44767,STARLINK-1062,PAYLOAD,2023-01-02 09:38:54,15.06408629,0.0001605,53.0534,44.3312,65.4714,294.6442,0.0011307,0.00016604,0.0,0 STARLINK-1062,1 44767U 19074BG  23002.40201869  .00016604  00000-0  11307-2 0  9997,2 44767  53.0534  44.3312 0001605  65.4714 294.6442 15.06408629173188,6925.321999999999,95.592,548.299,546.076,0.0
44767,STARLINK-1062,PAYLOAD,2023-01-02 12:49:59,15.06406952,0.0001517,53.0529,43.7372,63.5123,296.6021,0.00083316,0.00012152,0.0,0 STARLINK-1062,1 44767U 19074BG  23002.53471214  .00012152  00000-0  83316-3 0  9998,2 44767  53.0529  43.7372 0001517  63.5123 296.6021 15.06406952173032,6925.3269999999975,95.592,548.243,546.1419999999998,0.0
44767,STARLINK-1062,PAYLOAD,2023-01-02 19:12:08,15.06397504,0.0001437,53.0528,42.5438,65.6402,294.4737,0.00034422,4.849e-05,0.0,0 STARLINK-1062,1 44767U 19074BG  23002.80010013  .00004849  00000-0  34422-3 0  9992,2 44767  53.0528  42.5438 0001437  65.6402 294.4737 15.06397504173240,6925.356,95.592,548.216,546.226,0.0
44767,STARLINK-1062,PAYLOAD,2023-01-03 11:07:32,15.06394333,0.0001599,53.053,39.5655,62.3238,297.7913,0.00015021,1.956e-05,0.0,0 STARLINK-1062,1 44767U 19074BG  23003.46357177  .00001956  00000-0  15021-3 0  9990,2 44767  53.0530  39.5655 0001599  62.3238 297.7913 15.06394333173340,6925.366,95.592,548.3380000000002,546.124,0.0
44767,STARLINK-1062,PAYLOAD,2023-01-04 06:14:00,15.06403485,0.0001635,53.0528,35.9912,63.198,296.9176,0.00011759,1.471e-05,0.0,0 STARLINK-1062,1 44767U 19074BG  23004.25973079  .00001471  00000-0  11759-3 0  9999,2 44767  53.0528  35.9912 0001635  63.1980 296.9176 15.06403485173292,6925.3380000000025,95.592,548.335,546.071,0.0
44767,STARLINK-1062,PAYLOAD,2023-01-04 18:58:19,15.06414192,0.0001628,53.0532,33.6078,64.4183,295.6974,0.00038405,5.446e-05,0.0,0 STARLINK-1062,1 44767U 19074BG  23004.79050021  .00005446  00000-0  38405-3 0  9994,2 44767  53.0532  33.6078 0001628  64.4183 295.6974 15.06414192173543,6925.305,95.591,548.298,546.043,0.0
44767,STARLINK-1062,PAYLOAD,2023-01-04 20:33:51,15.06415283,0.0001604,53.0532,33.3105,64.0086,296.1069,0.00044608,6.372e-05,0.0,0 STARLINK-1062,1 44767U 19074BG  23004.85684653  .00006372  00000-0  44608-3 0  9996,2 44767  53.0532  33.3105 0001604  64.0086 296.1069 15.06415283173388,6925.302,95.591,548.278,546.056,0.0
44767,STARLINK-1062,PAYLOAD,2023-01-05 10:53:42,15.06419113,0.0001601,53.0527,30.6296,65.0524,295.0631,0.00046163,6.605e-05,0.0,0 STARLINK-1062,1 44767U 19074BG  23005.45396292  .00006605  00000-0  46163-3 0  9999,2 44767  53.0527  30.6296 0001601  65.0524 295.0631 15.06419113173477,6925.29,95.591,548.264,546.0459999999998,0.0
44767,STARLINK-1062,PAYLOAD,2023-01-05 18:51:24,15.06412433,0.0001571999999999,53.0523,29.1396,64.3257,295.7894,0.00019956,2.693e-05,0.0,0 STARLINK-1062,1 44767U 19074BG  23005.78569578  .00002693  00000-0  19956-3 0  9997,2 44767  53.0523  29.1396 0001572  64.3257 295.7894 15.06412433173521,6925.31,95.591,548.264,546.087,0.0
44767,STARLINK-1062,PAYLOAD,2023-01-06 10:46:49,15.06383303,0.000169,53.054,26.1612,61.2173,298.8985,-9.9102e-05,-1.757e-05,0.0,0 STARLINK-1062,1 44767U 19074BG  23006.44918542 -.00001757  00000-0 -99102-4 0  9994,2 44767  53.0540  26.1612 0001690  61.2173 298.8985 15.06383303173799,6925.4,95.593,548.435,546.094,0.0
44767,STARLINK-1062,PAYLOAD,2023-01-07 01:06:41,15.06385168,0.0001575,53.0542,23.4808,66.4869,293.6285,-0.00015798,-2.633e-05,0.0,0 STARLINK-1062,1 44767U 19074BG  23007.04631009 -.00002633  00000-0 -15798-3 0  9993,2 44767  53.0542  23.4808 0001575  66.4869 293.6285 15.06385168173718,6925.394,95.593,548.35,546.168,0.0
44767,STARLINK-1062,PAYLOAD,2023-01-07 10:39:54,15.06396842,0.000161,53.0537,21.6947,59.6426,300.4722,-2.9975e-05,-7.28e-06,0.0,0 STARLINK-1062,1 44767U 19074BG  23007.44438268 -.00000728  00000-0 -29975-4 0  9995,2 44767  53.0537  21.6947 0001610  59.6426 300.4722 15.06396842173948,6925.358,95.592,548.3380000000002,546.1080000000002,0.0
44767,STARLINK-1062,PAYLOAD,2023-01-08 00:59:46,15.06388939,0.000168,53.0529,19.0141,58.8795,301.2359,5.9179e-05,6e-06,0.0,0 STARLINK-1062,1 44767U 19074BG  23008.04150971  .00000600  00000-0  59179-4 0  9990,2 44767  53.0529  19.0141 0001680  58.8795 301.2359 15.06388939174037,6925.382,95.593,548.411,546.0840000000002,0.0
44767,STARLINK-1062,PAYLOAD,2023-01-08 07:21:55,15.063987699999998,0.0001791,53.0517,17.8218,66.2547,293.863,0.00013413,1.717e-05,0.0,0 STARLINK-1062,1 44767U 19074BG  23008.30689020  .00001717  00000-0  13413-3 0  9991,2 44767  53.0517  17.8218 0001791  66.2547 293.8630 15.06398770174072,6925.352,95.592,548.4580000000002,545.977,0.0
44767,STARLINK-1062,PAYLOAD,2023-01-09 00:52:51,15.06398176,0.0001437,53.0541,14.5456,54.2138,305.8985,0.0001171,1.463e-05,0.0,0 STARLINK-1062,1 44767U 19074BG  23009.03671253  .00001463  00000-0  11710-3 0  9997,2 44767  53.0541  14.5456 0001437  54.2138 305.8985 15.06398176174186,6925.354,95.592,548.214,546.224,0.0
44767,STARLINK-1062,PAYLOAD,2023-01-09 07:15:01,15.06396879,0.0001455,53.054,13.354,54.6729,305.4396,9.5566e-05,1.142e-05,0.0,0 STARLINK-1062,1 44767U 19074BG  23009.30210150  .00001142  00000-0  95566-4 0  9998,2 44767  53.0540  13.3540 0001455  54.6729 305.4396 15.06396879174052,6925.358,95.592,548.231,546.215,0.0
